OBJECT_NAME,OBJECT_ID,EPOCH,MEAN_MOTION,ECCENTRICITY,INCLINATION,RA_OF_ASC_NODE,ARG_OF_PERICENTER,MEAN_ANOMALY,EPHEMERIS_TYPE,CLASSIFICATION_TYPE,NORAD_CAT_ID,ELEMENT_SET_NO,REV_AT_EPOCH,BSTAR,MEAN_MOTION_DOT,MEAN_MOTION_DDOT
GALAXY 33 (G-33),2022-128A,2026-06-18T14:00:01.351872,1.00269760,.000165,0.0166,41.1207,41.8279,260.8775,0,U,54026,999,1375,0,.73E-6,0
GALAXY 34 (G-34),2022-128B,2026-06-18T15:26:01.500288,1.00274211,.0001513,0.0104,30.3042,67.6466,271.4326,0,U,54027,999,1392,0,.52E-6,0
ANGOSAT 2,2022-131A,2026-06-17T14:47:16.935072,1.00272126,.00007151,0.0320,83.0963,28.7776,38.8139,0,U,54033,999,1348,0,.13E-5,0
EUTELSAT HOTBIRD 13F,2022-134A,2026-06-18T12:58:53.181120,1.00271171,.00021131,0.0504,294.4606,61.3583,118.6917,0,U,54048,999,1339,0,.81E-6,0
LDPE-2,2022-144A,2026-06-18T09:16:38.644896,1.00532831,.00018332,5.6168,63.6447,102.0084,83.7717,0,U,54219,999,1185,0,.12E-5,0
EUTELSAT HOTBIRD 13G,2022-146A,2026-06-18T12:58:53.181120,1.00270372,.00019116,0.0486,230.4404,314.0945,289.9639,0,U,54225,999,748,0,.81E-6,0
ZHONGXING-19,2022-148A,2026-06-18T13:41:55.587264,1.00271563,.00023478,0.0175,20.2983,90.8153,164.3662,0,U,54230,999,1339,0,-.88E-6,0
GALAXY 31 (G-31),2022-153A,2026-06-18T14:03:31.017024,1.00271552,.0001087,0.0167,73.5964,4.7088,278.3816,0,U,54243,999,714,0,.7E-7,0
GALAXY 32 (G-32),2022-153B,2026-06-18T14:12:00.204192,1.00271685,.00020803,0.0111,25.1390,9.2508,354.4398,0,U,54244,999,1315,0,-.181E-5,0
EUTELSAT 10B,2022-157A,2026-06-18T12:58:00.764832,1.00265327,.0001098,0.0642,97.3669,11.7636,2.1356,0,U,54259,999,1304,0,.61E-6,0
GALAXY 35 (G-35),2022-170A,2026-06-18T12:28:48.564192,1.00271956,.00018005,0.0147,40.8490,42.9723,277.0248,0,U,54741,999,1290,0,-.168E-5,0
GALAXY 36 (G-36),2022-170B,2026-06-18T15:01:45.949728,1.00272554,.00025126,0.0139,170.5363,273.4342,319.3284,0,U,54742,999,1278,0,-.192E-5,0
METEOSAT-12 (MTG-I1),2022-170C,2026-06-18T07:47:13.527168,1.00272916,.00032147,0.7400,23.2065,71.0428,288.7161,0,U,54743,999,1298,0,-.14E-6,0
SHIJIAN-23 (SJ-23),2023-002A,2026-06-17T17:30:09.823968,1.00087498,.0003809,3.7196,78.3065,272.9008,325.0641,0,U,55131,999,1251,0,-.26E-5,0
APSTAR-6E,2023-005A,2026-06-18T15:07:02.704224,1.00271938,.00018314,0.0391,247.5070,288.9741,91.1200,0,U,55239,999,1870,0,-.324E-5,0
USA 342,2023-008A,2026-06-15T08:02:26.115936,1.00270392,.0000187,0.0090,64.0068,223.8693,120.1932,0,U,55263,999,1249,0,.142E-5,0
LDPE-3A,2023-008B,2026-06-18T14:05:15.849600,0.99145033,.00011367,2.3524,81.6466,60.7359,221.0480,0,U,55264,999,1182,0,.59E-6,0
ELEKTRO-L 4,2023-016A,2026-06-17T19:12:34.051104,1.00270813,.00007987,0.0744,162.3010,12.9032,184.7859,0,U,55506,999,1234,0,-.64E-6,0
AMAZONAS NEXUS,2023-017A,2026-06-18T12:37:55.191072,1.00275843,.00052207,0.0374,36.3998,35.4429,323.4129,0,U,55508,999,705,0,-.289E-5,0
ZHONGXING-26,2023-023A,2026-06-18T15:13:42.938400,1.00270112,.00033717,0.0692,70.6834,15.7498,173.9937,0,U,55686,999,1224,0,-.36E-5,0
LUCH-5X (OLYMP-K 2),2023-031A,2026-06-17T18:23:47.321088,1.00272450,.0000684,0.0237,60.4476,145.7824,37.7201,0,U,55841,999,1194,0,.28E-6,0
GAOFEN-13 02,2023-036A,2026-06-18T12:27:38.858400,1.00270254,.00040807,1.0208,1.3646,336.0538,264.5414,0,U,55912,999,1210,0,-.225E-5,0
SES-18,2023-038A,2026-06-18T14:54:41.006016,1.00271473,.00001214,0.0169,299.6964,324.7472,122.9796,0,U,55970,999,1211,0,-.107E-5,0
SES-19,2023-038B,2026-06-18T14:40:39.158976,1.00272115,.000146,0.0137,23.0826,60.3120,268.7154,0,U,55971,999,1210,0,.81E-6,0
INTELSAT 40E (IS-40E),2023-052A,2026-06-18T14:59:46.046400,1.00271281,.00019438,0.0142,44.4220,81.4139,274.9633,0,U,56174,999,1183,0,-.18E-5,0
VIASAT-3 F1,2023-060A,2026-06-18T15:01:45.949728,1.00270524,.00010788,0.0247,347.7018,91.2582,324.3886,0,U,56370,999,1144,0,0,0
ARCTURUS,2023-060B,2026-06-16T22:51:22.921632,1.00272378,.00025588,2.7748,79.9563,49.6160,190.9835,0,U,56371,999,1145,0,-.68E-6,0
GS-1,2023-060C,2026-06-17T20:14:15.131616,1.00274442,.00038166,2.7275,79.8251,282.0465,297.1917,0,U,56372,999,754,0,-.231E-5,0
BEIDOU-3 G4,2023-066A,2026-06-18T15:17:58.489728,1.00273278,.00043834,0.4846,331.9073,180.0740,124.4257,0,U,56564,999,1140,0,-.287E-5,0
ARABSAT-7B (BADR-8),2023-075A,2026-06-18T14:45:26.997120,1.00272190,.00045699,0.0750,27.5474,355.8676,130.8045,0,U,56757,999,1113,0,.138E-5,0
NVS-01 (IRNSS-1J),2023-076A,2026-06-18T15:03:30.245760,1.00264181,.0003103,2.1617,244.2742,35.8685,342.0088,0,U,56759,999,1113,0,-.342E-5,0
